[{"OBJECT_NAME":"QIANFAN-20","OBJECT_ID":"2024-185B","EPOCH":"2026-03-09T23:23:01.518432","MEAN_MOTION":14.08938537,"ECCENTRICITY":0.00078766,"INCLINATION":88.976,"RA_OF_ASC_NODE":68.3354,"ARG_OF_PERICENTER":72.8404,"MEAN_ANOMALY":287.3642,"EPHEMERIS_TYPE":0,"CLASSIFICATION_TYPE":"U","NORAD_CAT_ID":61553,"ELEMENT_SET_NO":999,"REV_AT_EPOCH":8177,"BSTAR":0.00032795523,"MEAN_MOTION_DOT":5.81e-6,"MEAN_MOTION_DDOT":0},{"OBJECT_NAME":"CZ-6A DEB","OBJECT_ID":"2024-140FS","EPOCH":"2026-03-09T13:28:29.327520","MEAN_MOTION":14.13064293,"ECCENTRICITY":0.00775335,"INCLINATION":88.8329,"RA_OF_ASC_NODE":275.8336,"ARG_OF_PERICENTER":182.6378,"MEAN_ANOMALY":177.4411,"EPHEMERIS_TYPE":0,"CLASSIFICATION_TYPE":"U","NORAD_CAT_ID":60791,"ELEMENT_SET_NO":999,"REV_AT_EPOCH":8110,"BSTAR":0.00031977025,"MEAN_MOTION_DOT":6.28e-6,"MEAN_MOTION_DDOT":0}]
